NORAD_CAT_ID,OBJECT_NAME,OBJECT_TYPE,EPOCH,MEAN_MOTION,ECCENTRICITY,INCLINATION,RA_OF_ASC_NODE,ARG_OF_PERICENTER,MEAN_ANOMALY,BSTAR,MEAN_MOTION_DOT,MEAN_MOTION_DDOT,TLE_LINE0,TLE_LINE1,TLE_LINE2,SEMIMAJOR_AXIS,PERIOD,APOGEE,PERIGEE,DECAYED
52092.0,STARLINK-3716,PAYLOAD,2022-09-18 17:12:17,15.08843302,0.0001634,53.219,21.2704,51.3545,308.7593,-0.00011097,-2.054e-05,0.0,0 STARLINK-3716,1 52092U 22029E   22261.71687196 -.00002054  00000-0 -11097-3 0  9995,2 52092  53.2190  21.2704 0001634  51.3545 308.7593 15.08843302 29238,6917.87,95.437,540.866,538.605,0.0
52092.0,STARLINK-3716,PAYLOAD,2022-09-19 13:52:18,15.08846813,0.0001757,53.2191,17.4049,50.7417,309.3731,0.00023494,3.454e-05,0.0,0 STARLINK-3716,1 52092U 22029E   22262.57798817  .00003454  00000-0  23494-3 0  9990,2 52092  53.2191  17.4049 0001757  50.7417 309.3731 15.08846813 29360,6917.86,95.437,540.94,538.509,0.0
52092.0,STARLINK-3716,PAYLOAD,2022-09-20 01:00:00,15.08841332,0.0001855,53.2185,15.3237,58.1721,301.9451,0.00011457,1.536e-05,0.0,0 STARLINK-3716,1 52092U 22029E   22263.04167382  .00001536  00000-0  11457-3 0  9995,2 52092  53.2185  15.3237 0001855  58.1721 301.9451 15.08841332 29434,6917.876,95.437,541.025,538.4580000000002,0.0
52092.0,STARLINK-3716,PAYLOAD,2022-09-20 13:43:05,15.08849731,0.0001751,53.218,12.9457,46.8258,313.2881,0.00031132,4.671e-05,0.0,0 STARLINK-3716,1 52092U 22029E   22263.57158831  .00004671  00000-0  31132-3 0  9997,2 52092  53.2180  12.9457 0001751  46.8258 313.2881 15.08849731 29513,6917.851,95.437,540.927,538.504,0.0
52092.0,STARLINK-3716,PAYLOAD,2022-09-20 15:18:28,15.08851254,0.0001705,53.2184,12.6478,54.3996,305.7155,0.00027421,4.08e-05,0.0,0 STARLINK-3716,1 52092U 22029E   22263.63782685  .00004080  00000-0  27421-3 0  9994,2 52092  53.2184  12.6478 0001705  54.3996 305.7155 15.08851254 29523,6917.846,95.437,540.89,538.531,0.0
52092.0,STARLINK-3716,PAYLOAD,2022-09-21 05:36:56,15.088451199999998,0.0002106999999999,53.2183,9.9732,51.9099,308.2083,6.927e-05,8.15e-06,0.0,0 STARLINK-3716,1 52092U 22029E   22264.23399029  .00000815  00000-0  69270-4 0  9998,2 52092  53.2183   9.9732 0002107  51.9099 308.2083 15.08845120 29611,6917.865,95.437,541.187,538.2719999999998,0.0
52092.0,STARLINK-3716,PAYLOAD,2022-09-21 13:33:52,15.08843838,0.0001757,53.218,8.4844,49.8222,310.2924,-7.8519e-06,-4.13e-06,0.0,0 STARLINK-3716,1 52092U 22029E   22264.56518914 -.00000413  00000-0 -78519-5 0  9993,2 52092  53.2180   8.4844 0001757  49.8222 310.2924 15.08843838 29666,6917.869000000002,95.437,540.9490000000002,538.518,0.0
52092.0,STARLINK-3716,PAYLOAD,2022-09-22 13:24:39,15.08840244,0.0001885999999999,53.2185,4.025,53.837,306.2796,-1.8035e-05,-5.75e-06,0.0,0 STARLINK-3716,1 52092U 22029E   22265.55879222 -.00000575  00000-0 -18035-4 0  9990,2 52092  53.2185   4.0250 0001886  53.8370 306.2796 15.08840244 29813,6917.88,95.438,541.049,538.44,0.0
52092.0,STARLINK-3716,PAYLOAD,2022-09-23 13:15:26,15.08837839,0.0001706999999999,53.2183,359.564,50.3773,309.7369,9.5346e-05,1.23e-05,0.0,0 STARLINK-3716,1 52092U 22029E   22266.55239363  .00001230  00000-0  95346-4 0  9994,2 52092  53.2183 359.5640 0001707  50.3773 309.7369 15.08837839 29969,6917.887,95.438,540.933,538.571,0.0
52092.0,STARLINK-3716,PAYLOAD,2022-09-23 18:01:35,15.08841835,0.0001763,53.2185,358.6721,46.5654,313.5484,0.00012515,1.704e-05,0.0,0 STARLINK-3716,1 52092U 22029E   22266.75111088  .00001704  00000-0  12515-3 0  9991,2 52092  53.2185 358.6721 0001763  46.5654 313.5484 15.08841835 29993,6917.875,95.437,540.9590000000002,538.52,0.0
52092.0,STARLINK-3716,PAYLOAD,2022-09-24 11:30:51,15.08833681,0.0001872,53.2187,355.4023,44.8116,315.3027,5.0922e-05,5.22e-06,0.0,0 STARLINK-3716,1 52092U 22029E   22267.47975929  .00000522  00000-0  50922-4 0  9995,2 52092  53.2187 355.4023 0001872  44.8116 315.3027 15.08833681 30108,6917.9,95.438,541.06,538.47,0.0
52092.0,STARLINK-3716,PAYLOAD,2022-09-24 14:41:37,15.08838631,0.0001865,53.2187,354.8076,46.6907,313.4240000000001,9.3741e-05,1.204e-05,0.0,0 STARLINK-3716,1 52092U 22029E   22267.61223538  .00001204  00000-0  93741-4 0  9997,2 52092  53.2187 354.8076 0001865  46.6907 313.4240 15.08838631 30127,6917.885,95.438,541.04,538.4590000000002,0.0
52092.0,STARLINK-3716,PAYLOAD,2022-09-24 22:38:32,15.08848655,0.0001851999999999,53.219,353.3208,47.9282,312.1867,0.00012362,1.6800000000000002e-05,0.0,0 STARLINK-3716,1 52092U 22029E   22267.94342787  .00001680  00000-0  12362-3 0  9998,2 52092  53.2190 353.3208 0001852  47.9282 312.1867 15.08848655 30171,6917.854,95.437,541.0,538.438,0.0
52092.0,STARLINK-3716,PAYLOAD,2022-09-25 11:21:36,15.08850507,0.0001610999999999,53.2184,350.9405,42.9303,317.1815,0.00020215,2.932e-05,0.0,0 STARLINK-3716,1 52092U 22029E   22268.47334122  .00002932  00000-0  20215-3 0  9998,2 52092  53.2184 350.9405 0001611  42.9303 317.1815 15.08850507 30254,6917.848000000001,95.437,540.828,538.599,0.0
52092.0,STARLINK-3716,PAYLOAD,2022-09-25 12:56:59,15.08850034,0.0001629999999999,53.2186,350.6431,41.8865,318.2251,0.00019493,2.816e-05,0.0,0 STARLINK-3716,1 52092U 22029E   22268.53958198  .00002816  00000-0  19493-3 0  9997,2 52092  53.2186 350.6431 0001630  41.8865 318.2251 15.08850034 30266,6917.85,95.437,540.842,538.587,0.0
52092.0,STARLINK-3716,PAYLOAD,2022-09-26 09:37:01,15.08827439,0.0001972,53.2174,346.7739,24.713,335.3956,4.0303e-05,3.53e-06,0.0,0 STARLINK-3716,1 52092U 22029E   22269.40071570  .00000353  00000-0  40303-4 0  9993,2 52092  53.2174 346.7739 0001972  24.7130 335.3956 15.08827439 30393,6917.919,95.438,541.148,538.42,0.0
52092.0,STARLINK-3716,PAYLOAD,2022-09-27 09:27:47,15.08875791,0.000204,53.2181,342.3216,39.7968,320.3174,-0.00041522,-6.897e-05,0.0,0 STARLINK-3716,1 52092U 22029E   22270.39430071 -.00006897  00000-0 -41522-3 0  9992,2 52092  53.2181 342.3216 0002040  39.7968 320.3174 15.08875791 30542,6917.771,95.435,541.047,538.225,0.0
52092.0,STARLINK-3716,PAYLOAD,2022-09-27 22:10:52,15.08851865,0.000178,53.2194,339.9372,48.07899999999999,312.0354,0.00020296,2.945e-05,0.0,0 STARLINK-3716,1 52092U 22029E   22270.92422010  .00002945  00000-0  20296-3 0  9998,2 52092  53.2194 339.9372 0001780  48.0790 312.0354 15.08851865 30620,6917.844,95.437,540.94,538.4780000000002,0.0
52092.0,STARLINK-3716,PAYLOAD,2022-09-28 14:04:44,15.08853619,0.0001806,53.2188,336.9628,53.7881,306.3278,0.00035329,5.341e-05,0.0,0 STARLINK-3716,1 52092U 22029E   22271.58662270  .00005341  00000-0  35329-3 0  9991,2 52092  53.2188 336.9628 0001806  53.7881 306.3278 15.08853619 30728,6917.839,95.437,540.953,538.4540000000002,0.0
52092.0,STARLINK-3716,PAYLOAD,2022-09-29 10:44:46,15.08823342,0.0001841,53.2175,333.098,46.1023,314.0121,-0.00033074,-5.546e-05,0.0,0 STARLINK-3716,1 52092U 22029E   22272.44775736 -.00005546  00000-0 -33074-3 0  9993,2 52092  53.2175 333.0980 0001841  46.1023 314.0121 15.08823342 30853,6917.931,95.439,541.07,538.523,0.0
52092.0,STARLINK-3716,PAYLOAD,2022-09-29 12:20:09,15.08822454,0.0001855999999999,53.2177,332.8007,46.7692,313.3455,-0.000335,-5.613e-05,0.0,0 STARLINK-3716,1 52092U 22029E   22272.51399840 -.00005613  00000-0 -33500-3 0  9998,2 52092  53.2177 332.8007 0001856  46.7692 313.3455 15.08822454 30862,6917.934,95.439,541.0830000000002,538.515,0.0
52092.0,STARLINK-3716,PAYLOAD,2022-09-30 12:10:56,15.08836926,0.0001955,53.2172,328.342,41.8839,318.2303,0.00027324,4.063e-05,0.0,0 STARLINK-3716,1 52092U 22029E   22273.50760281  .00004063  00000-0  27324-3 0  9992,2 52092  53.2172 328.3420 0001955  41.8839 318.2303 15.08836926 31018,6917.89,95.438,541.107,538.4019999999998,0.0
52092.0,STARLINK-3716,PAYLOAD,2022-09-30 13:46:20,15.08837343,0.0002000999999999,53.2172,328.0448,40.4304,319.6836,0.00057869,8.933e-05,0.0,0 STARLINK-3716,1 52092U 22029E   22273.57384547  .00008933  00000-0  57869-3 0  9993,2 52092  53.2172 328.0448 0002001  40.4304 319.6836 15.08837343 31021,6917.889,95.438,541.138,538.369,0.0
52092.0,STARLINK-3716,PAYLOAD,2022-09-30 15:21:43,15.08836659,0.0001996,53.2172,327.7475,39.8283,320.2855,0.0010611,0.00016638,0.0,0 STARLINK-3716,1 52092U 22029E   22273.64008929  .00016638  00000-0  10611-2 0  9992,2 52092  53.2172 327.7475 0001996  39.8283 320.2855 15.08836659 31036,6917.891,95.438,541.136,538.375,0.0
52092.0,STARLINK-3716,PAYLOAD,2022-10-01 10:26:20,15.08865073,0.0002056999999999,53.2173,324.1792,41.3769,318.7378,0.00098929,0.00015502,0.0,0 STARLINK-3716,1 52092U 22029E   22274.43496134  .00015502  00000-0  98929-3 0  9997,2 52092  53.2173 324.1792 0002057  41.3769 318.7378 15.08865073 31153,6917.804,95.436,541.092,538.246,0.0
52092.0,STARLINK-3716,PAYLOAD,2022-10-01 19:58:39,15.08856882,0.0002083,53.2171,322.3951,41.2853,318.8297,0.0003707,5.619e-05,0.0,0 STARLINK-3716,1 52092U 22029E   22274.83239943  .00005619  00000-0  37070-3 0  9992,2 52092  53.2171 322.3951 0002083  41.2853 318.8297 15.08856882 31216,6917.829000000002,95.436,541.135,538.253,0.0
52092.0,STARLINK-3716,PAYLOAD,2022-10-02 11:52:30,15.08836851,0.0001885,53.2169,319.4207,41.1118,319.0015,-0.00014942,-2.665e-05,0.0,0 STARLINK-3716,1 52092U 22029E   22275.49480236 -.00002665  00000-0 -14942-3 0  9991,2 52092  53.2169 319.4207 0001885  41.1118 319.0015 15.08836851 31312,6917.89,95.438,541.059,538.451,0.0
52092.0,STARLINK-3716,PAYLOAD,2022-10-02 19:49:26,15.08840865,0.0001931,53.2169,317.9341,40.0039,320.1095,0.00018609,2.675e-05,0.0,0 STARLINK-3716,1 52092U 22029E   22275.82600364  .00002675  00000-0  18609-3 0  9997,2 52092  53.2169 317.9341 0001931  40.0039 320.1095 15.08840865 31362,6917.878000000002,95.437,541.0790000000002,538.4069999999998,0.0
52092.0,STARLINK-3716,PAYLOAD,2022-10-03 10:07:54,15.08852334,0.0002013,53.2172,315.2583,42.9227,317.1922,0.00040975,6.241e-05,0.0,0 STARLINK-3716,1 52092U 22029E   22276.42216075  .00006241  00000-0  40975-3 0  9990,2 52092  53.2172 315.2583 0002013  42.9227 317.1922 15.08852334 31456,6917.843000000003,95.437,541.1,538.315,0.0
